{
  "norad_id": 57762,
  "name": "CHECKMATE 10",
  "history": [
    {
      "epoch": "2026-03-28T17:54:15.333120Z",
      "apogee_km": 948.4786106272923,
      "perigee_km": 940.63820065647,
      "latitude_deg": 6.300283148996181e-05,
      "longitude_deg": -10.08571573327094,
      "height_km": 950.485036466589,
      "semi_major_axis_km": 7322.695405641881,
      "eccentricity": 0.00053535,
      "inclination_deg": 80.9966,
      "raan_deg": 84.6402,
      "arg_perigee_deg": 218.5851,
      "mean_anomaly_deg": 141.4924,
      "mean_motion_rev_day": 13.85467388
    },
    {
      "epoch": "2026-03-29T02:34:13.019232Z",
      "apogee_km": 948.4890275841017,
      "perigee_km": 940.6273820122315,
      "latitude_deg": 5.076967090433455e-05,
      "longitude_deg": -140.77877746203234,
      "height_km": 950.538809744381,
      "semi_major_axis_km": 7322.695204798167,
      "eccentricity": 0.0005368,
      "inclination_deg": 80.9966,
      "raan_deg": 84.2934,
      "arg_perigee_deg": 217.5034,
      "mean_anomaly_deg": 142.5749,
      "mean_motion_rev_day": 13.85467445
    },
    {
      "epoch": "2026-03-30T01:06:06.994656Z",
      "apogee_km": 948.5094772192697,
      "perigee_km": 940.6053608633556,
      "latitude_deg": -3.0758713329210334e-06,
      "longitude_deg": -120.58062543137515,
      "height_km": 950.668999126784,
      "semi_major_axis_km": 7322.694419041312,
      "eccentricity": 0.0005397,
      "inclination_deg": 80.9967,
      "raan_deg": 83.3918,
      "arg_perigee_deg": 214.6906,
      "mean_anomaly_deg": 145.3899,
      "mean_motion_rev_day": 13.85467668
    },
    {
      "epoch": "2026-03-30T06:18:05.602176Z",
      "apogee_km": 948.52166300504,
      "perigee_km": 940.5929425217801,
      "latitude_deg": -3.704970147802553e-05,
      "longitude_deg": 161.00353093785202,
      "height_km": 950.7027121191654,
      "semi_major_axis_km": 7322.69430276341,
      "eccentricity": 0.00054138,
      "inclination_deg": 80.9967,
      "raan_deg": 83.1837,
      "arg_perigee_deg": 214.083,
      "mean_anomaly_deg": 145.9979,
      "mean_motion_rev_day": 13.85467701
    },
    {
      "epoch": "2026-03-30T09:46:04.675584Z",
      "apogee_km": 948.5244757418668,
      "perigee_km": 940.589897229157,
      "latitude_deg": -1.4628520490055755e-05,
      "longitude_deg": 108.7263350681723,
      "height_km": 950.7222495163362,
      "semi_major_axis_km": 7322.694186485512,
      "eccentricity": 0.00054178,
      "inclination_deg": 80.9967,
      "raan_deg": 83.045,
      "arg_perigee_deg": 213.6356,
      "mean_anomaly_deg": 146.4457,
      "mean_motion_rev_day": 13.85467734
    }
  ]
}